[{"OBJECT_NAME":"STARLINK-4198","OBJECT_ID":"2022-062AE","EPOCH":"2026-03-09T07:04:23.393280","MEAN_MOTION":15.08835599,"ECCENTRICITY":0.00017715,"INCLINATION":53.218,"RA_OF_ASC_NODE":25.9201,"ARG_OF_PERICENTER":92.0175,"MEAN_ANOMALY":268.102,"EPHEMERIS_TYPE":0,"CLASSIFICATION_TYPE":"U","NORAD_CAT_ID":52858,"ELEMENT_SET_NO":999,"REV_AT_EPOCH":20586,"BSTAR":-8.5386398e-5,"MEAN_MOTION_DOT":-1.647e-5,"MEAN_MOTION_DDOT":0},{"OBJECT_NAME":"STARLINK-5895","OBJECT_ID":"2023-037BC","EPOCH":"2026-03-09T22:23:45.381696","MEAN_MOTION":15.07243555,"ECCENTRICITY":0.00049855,"INCLINATION":69.9972,"RA_OF_ASC_NODE":260.028,"ARG_OF_PERICENTER":264.4993,"MEAN_ANOMALY":95.5602,"EPHEMERIS_TYPE":0,"CLASSIFICATION_TYPE":"U","NORAD_CAT_ID":55964,"ELEMENT_SET_NO":999,"REV_AT_EPOCH":16460,"BSTAR":0.00072849946,"MEAN_MOTION_DOT":0.00010921,"MEAN_MOTION_DDOT":0}]
